[{"OBJECT_NAME":"STARLINK-31335","OBJECT_ID":"2024-031E","EPOCH":"2026-03-09T21:35:06.467424","MEAN_MOTION":15.30192475,"ECCENTRICITY":0.00012727,"INCLINATION":53.1595,"RA_OF_ASC_NODE":293.0019,"ARG_OF_PERICENTER":72.9439,"MEAN_ANOMALY":287.1701,"EPHEMERIS_TYPE":0,"CLASSIFICATION_TYPE":"U","NORAD_CAT_ID":58969,"ELEMENT_SET_NO":999,"REV_AT_EPOCH":11660,"BSTAR":3.8661629e-5,"MEAN_MOTION_DOT":7.86e-6,"MEAN_MOTION_DDOT":0},{"OBJECT_NAME":"OBJECT C","OBJECT_ID":"2024-085C","EPOCH":"2026-03-09T22:49:58.289376","MEAN_MOTION":15.31893958,"ECCENTRICITY":0.00283931,"INCLINATION":97.3357,"RA_OF_ASC_NODE":145.6975,"ARG_OF_PERICENTER":37.3887,"MEAN_ANOMALY":322.9323,"EPHEMERIS_TYPE":0,"CLASSIFICATION_TYPE":"U","NORAD_CAT_ID":59679,"ELEMENT_SET_NO":999,"REV_AT_EPOCH":10244,"BSTAR":0.00039740634,"MEAN_MOTION_DOT":0.0001232,"MEAN_MOTION_DDOT":0}]
